{
  "type": "FeatureCollection",
  "features": [
    {
      "type": "Feature",
      "properties": {
        "norad_id": 67010,
        "name": "STARLINK-36189",
        "group": "last-30-days",
        "lat": 54.63965888897438,
        "lon": 89.3015195624942,
        "alt_km": 296.0403424830429,
        "timestamp": "2025-12-20T20:38:43.175329+00:00",
        "meta_object_name": "STARLINK-36189",
        "meta_object_id": "2025-293H",
        "meta_epoch": "2025-12-20T14:00:03.000384",
        "meta_mean_motion": 15.9163148,
        "meta_eccentricity": 0.00039856,
        "meta_inclination": 69.9939,
        "meta_ra_of_asc_node": 300.999,
        "meta_arg_of_pericenter": 267.1397,
        "meta_mean_anomaly": 67.1096,
        "meta_ephemeris_type": 0,
        "meta_classification_type": "U",
        "meta_norad_cat_id": 67010,
        "meta_element_set_no": 999,
        "meta_rev_at_epoch": 143,
        "meta_bstar": -0.0039788952,
        "meta_mean_motion_dot": -0.01293162,
        "meta_mean_motion_ddot": 0.00048403746,
        "tle_line1": "1 67010U 25293H   25354.58336806 -.01293162  48404-3 -39789-2 0  9990",
        "tle_line2": "2 67010  69.9939 300.9990 0003985 267.1397  67.1096 15.91631480  1436"
      },
      "geometry": {
        "type": "Point",
        "coordinates": [
          89.3015195624942,
          54.63965888897438
        ]
      }
    },
    {
      "type": "Feature",
      "properties": {
        "norad_id": 67011,
        "name": "STARLINK-36167",
        "group": "last-30-days",
        "lat": 56.793492780930336,
        "lon": 86.37214910876843,
        "alt_km": 295.9496248529076,
        "timestamp": "2025-12-20T20:38:43.175339+00:00",
        "meta_object_name": "STARLINK-36167",
        "meta_object_id": "2025-293J",
        "meta_epoch": "2025-12-20T14:00:03.000384",
        "meta_mean_motion": 15.91590411,
        "meta_eccentricity": 0.00040268,
        "meta_inclination": 69.9934,
        "meta_ra_of_asc_node": 301.0016,
        "meta_arg_of_pericenter": 266.8594,
        "meta_mean_anomaly": 64.7178,
        "meta_ephemeris_type": 0,
        "meta_classification_type": "U",
        "meta_norad_cat_id": 67011,
        "meta_element_set_no": 999,
        "meta_rev_at_epoch": 137,
        "meta_bstar": -0.0039563382,
        "meta_mean_motion_dot": -0.01283241,
        "meta_mean_motion_ddot": 0.00047701515,
        "tle_line1": "1 67011U 25293J   25354.58336806 -.01283241  47702-3 -39563-2 0  9998",
        "tle_line2": "2 67011  69.9934 301.0016 0004026 266.8594  64.7178 15.91590411  1370"
      },
      "geometry": {
        "type": "Point",
        "coordinates": [
          86.37214910876843,
          56.793492780930336
        ]
      }
    },
    {
      "type": "Feature",
      "properties": {
        "norad_id": 67012,
        "name": "STARLINK-36175",
        "group": "last-30-days",
        "lat": 52.849313624958306,
        "lon": 91.44898586317491,
        "alt_km": 296.2121409332867,
        "timestamp": "2025-12-20T20:38:43.175351+00:00",
        "meta_object_name": "STARLINK-36175",
        "meta_object_id": "2025-293K",
        "meta_epoch": "2025-12-20T14:00:03.000384",
        "meta_mean_motion": 15.91668772,
        "meta_eccentricity": 0.00040517,
        "meta_inclination": 69.9935,
        "meta_ra_of_asc_node": 300.9961,
        "meta_arg_of_pericenter": 269.0144,
        "meta_mean_anomaly": 67.3919,
        "meta_ephemeris_type": 0,
        "meta_classification_type": "U",
        "meta_norad_cat_id": 67012,
        "meta_element_set_no": 999,
        "meta_rev_at_epoch": 137,
        "meta_bstar": -0.0039884685,
        "meta_mean_motion_dot": -0.01298736,
        "meta_mean_motion_ddot": 0.00048807348,
        "tle_line1": "1 67012U 25293K   25354.58336806 -.01298736  48807-3 -39885-2 0  9998",
        "tle_line2": "2 67012  69.9935 300.9961 0004051 269.0144  67.3919 15.91668772  1371"
      },
      "geometry": {
        "type": "Point",
        "coordinates": [
          91.44898586317491,
          52.849313624958306
        ]
      }
    },
    {
      "type": "Feature",
      "properties": {
        "norad_id": 67013,
        "name": "STARLINK-35856",
        "group": "last-30-days",
        "lat": 50.62259344894632,
        "lon": 93.833423952501,
        "alt_km": 296.3310986009328,
        "timestamp": "2025-12-20T20:38:43.175374+00:00",
        "meta_object_name": "STARLINK-35856",
        "meta_object_id": "2025-293L",
        "meta_epoch": "2025-12-20T14:00:03.000384",
        "meta_mean_motion": 15.91709069,
        "meta_eccentricity": 0.00040529,
        "meta_inclination": 69.9934,
        "meta_ra_of_asc_node": 300.9927,
        "meta_arg_of_pericenter": 268.4245,
        "meta_mean_anomaly": 70.6146,
        "meta_ephemeris_type": 0,
        "meta_classification_type": "U",
        "meta_norad_cat_id": 67013,
        "meta_element_set_no": 999,
        "meta_rev_at_epoch": 137,
        "meta_bstar": -0.0040099902,
        "meta_mean_motion_dot": -0.01308354,
        "meta_mean_motion_ddot": 0.00049496045,
        "tle_line1": "1 67013U 25293L   25354.58336806 -.01308354  49496-3 -40100-2 0  9994",
        "tle_line2": "2 67013  69.9934 300.9927 0004052 268.4245  70.6146 15.91709069  1373"
      },
      "geometry": {
        "type": "Point",
        "coordinates": [
          93.833423952501,
          50.62259344894632
        ]
      }
    },
    {
      "type": "Feature",
      "properties": {
        "norad_id": 67014,
        "name": "STARLINK-36207",
        "group": "last-30-days",
        "lat": 48.50031324260469,
        "lon": 95.86622415989906,
        "alt_km": 296.5023829382735,
        "timestamp": "2025-12-20T20:38:43.175386+00:00",
        "meta_object_name": "STARLINK-36207",
        "meta_object_id": "2025-293M",
        "meta_epoch": "2025-12-20T14:00:03.000384",
        "meta_mean_motion": 15.91747811,
        "meta_eccentricity": 0.00040243,
        "meta_inclination": 69.9938,
        "meta_ra_of_asc_node": 300.99,
        "meta_arg_of_pericenter": 270.3341,
        "meta_mean_anomaly": 71.1633,
        "meta_ephemeris_type": 0,
        "meta_classification_type": "U",
        "meta_norad_cat_id": 67014,
        "meta_element_set_no": 999,
        "meta_rev_at_epoch": 143,
        "meta_bstar": -0.0040203734,
        "meta_mean_motion_dot": -0.01314282,
        "meta_mean_motion_ddot": 0.00049929662,
        "tle_line1": "1 67014U 25293M   25354.58336806 -.01314282  49930-3 -40204-2 0  9990",
        "tle_line2": "2 67014  69.9938 300.9900 0004024 270.3341  71.1633 15.91747811  1438"
      },
      "geometry": {
        "type": "Point",
        "coordinates": [
          95.86622415989906,
          48.50031324260469
        ]
      }
    },
    {
      "type": "Feature",
      "properties": {
        "norad_id": 67015,
        "name": "STARLINK-36093",
        "group": "last-30-days",
        "lat": 44.225282555215585,
        "lon": 99.4088408830885,
        "alt_km": 296.65410881806747,
        "timestamp": "2025-12-20T20:38:43.175396+00:00",
        "meta_object_name": "STARLINK-36093",
        "meta_object_id": "2025-293N",
        "meta_epoch": "2025-12-20T14:00:03.000384",
        "meta_mean_motion": 15.91813293,
        "meta_eccentricity": 0.00039679,
        "meta_inclination": 69.9934,
        "meta_ra_of_asc_node": 300.984,
        "meta_arg_of_pericenter": 266.5831,
        "meta_mean_anomaly": 79.7713,
        "meta_ephemeris_type": 0,
        "meta_classification_type": "U",
        "meta_norad_cat_id": 67015,
        "meta_element_set_no": 999,
        "meta_rev_at_epoch": 137,
        "meta_bstar": -0.004006057,
        "meta_mean_motion_dot": -0.01313995,
        "meta_mean_motion_ddot": 0.00049941948,
        "tle_line1": "1 67015U 25293N   25354.58336806 -.01313995  49942-3 -40061-2 0  9995",
        "tle_line2": "2 67015  69.9934 300.9840 0003967 266.5831  79.7713 15.91813293  1378"
      },
      "geometry": {
        "type": "Point",
        "coordinates": [
          99.4088408830885,
          44.225282555215585
        ]
      }
    },
    {
      "type": "Feature",
      "properties": {
        "norad_id": 67016,
        "name": "STARLINK-36120",
        "group": "last-30-days",
        "lat": 46.51159437040394,
        "lon": 97.5949579429338,
        "alt_km": 296.5309195924574,
        "timestamp": "2025-12-20T20:38:43.175408+00:00",
        "meta_object_name": "STARLINK-36120",
        "meta_object_id": "2025-293P",
        "meta_epoch": "2025-12-20T14:00:03.000384",
        "meta_mean_motion": 15.91783291,
        "meta_eccentricity": 0.00040172,
        "meta_inclination": 69.9936,
        "meta_ra_of_asc_node": 300.9872,
        "meta_arg_of_pericenter": 267.2169,
        "meta_mean_anomaly": 76.5528,
        "meta_ephemeris_type": 0,
        "meta_classification_type": "U",
        "meta_norad_cat_id": 67016,
        "meta_element_set_no": 999,
        "meta_rev_at_epoch": 137,
        "meta_bstar": -0.0040248186,
        "meta_mean_motion_dot": -0.01318096,
        "meta_mean_motion_ddot": 0.00050214972,
        "tle_line1": "1 67016U 25293P   25354.58336806 -.01318096  50215-3 -40248-2 0  9995",
        "tle_line2": "2 67016  69.9936 300.9872 0004017 267.2169  76.5528 15.91783291  1378"
      },
      "geometry": {
        "type": "Point",
        "coordinates": [
          97.5949579429338,
          46.51159437040394
        ]
      }
    }
  ]
}